[ {"name": "STARLINK-36960", "line1": "1 68225U 26053U   26155.22815988  .00019973  00000+0  61933-3 0  9994", "line2": "2 68225  97.2855  30.5833 0001578 102.0991 258.0429 15.33446324 13465"}, {"name": "STARLINK-37038", "line1": "1 68226U 26053V   26155.22271894  .00020819  00000+0  64531-3 0  9995", "line2": "2 68226  97.2850  30.5919 0001242 112.1371 248.0004 15.33451257 13467"}, {"name": "STARLINK-37083", "line1": "1 68227U 26053W   26155.22544153  .00025184  00000+0  77963-3 0  9990", "line2": "2 68227  97.2855  30.5870 0001443  90.0706 270.0702 15.33451878 13456"}, {"name": "STARLINK-37050", "line1": "1 68228U 26053X   26155.22000168  .00020107  00000+0  62339-3 0  9995", "line2": "2 68228  97.2852  30.5954 0001175  75.0312 285.1060 15.33450341 13464"}, {"name": "STARLINK-37081", "line1": "1 68229U 26053Y   26155.78885632  .00060687  00000+0  11086-2 0  9993", "line2": "2 68229  97.2836  33.9437 0001869 103.4340 256.7120 15.49197396 13755"}, {"name": "STARLINK-37100", "line1": "1 68230U 26053Z   26155.60881532  .00021715  00000+0  67283-3 0  9991", "line2": "2 68230  97.2837  30.9869 0002801 110.7400 249.4143 15.33451769 13540"}, {"name": "STARLINK-37104", "line1": "1 68231U 26053AA  26155.21456496  .00024882  00000+0  77036-3 0  9991", "line2": "2 68231  97.2849  30.6022 0001405  88.9720 271.1683 15.33451189 13482"}, {"name": "STARLINK-37027", "line1": "1 68232U 26054A   26156.16670139  .00072937  00000+0  21543-2 0  9995", "line2": "2 68232  53.1591 243.4696 0001381  92.8006 271.8591 15.34321832  5942"}, {"name": "STARLINK-37132", "line1": "1 68233U 26054B   26155.57696213  .00092330  00000+0  16437-2 0  9996", "line2": "2 68233  53.1579 247.6780 0000513  37.4278 322.6767 15.49393119 12379"}, {"name": "STARLINK-37101", "line1": "1 68234U 26054C   26156.00002315  .00028927  00000+0  52690-3 0  9993", "line2": "2 68234  53.1581 248.3974 0001174  81.3517 191.3094 15.49273350  5936"}, {"name": "STARLINK-36963", "line1": "1 68235U 26054D   26156.00002315  .00013699  00000+0  41590-3 0  9991", "line2": "2 68235  53.1574 244.5985 0001266  99.8748 249.0647 15.34395622  5915"}, {"name": "STARLINK-37127", "line1": "1 68236U 26054E   26156.16670139  .00102771  00000+0  18360-2 0  9992", "line2": "2 68236  53.1587 247.3525 0001459  85.2372 161.3036 15.49241259  5894"}, {"name": "STARLINK-37095", "line1": "1 68237U 26054F   26154.50179558  .00028344  00000+0  84775-3 0  9995", "line2": "2 68237  53.1577 251.5779 0001242  72.0524 288.0614 15.34366646 12221"}, {"name": "STARLINK-37097", "line1": "1 68238U 26054G   26154.86151907  .00028754  00000+0  83190-3 0  9998", "line2": "2 68238  53.1611 249.5538 0002273  42.7167 317.4013 15.35405043 12285"}, {"name": "STARLINK-37096", "line1": "1 68239U 26054H   26155.45305842  .00024657  00000+0  71513-3 0  9998", "line2": "2 68239  53.1596 246.8495 0001825  60.3470 299.7715 15.35414141 12375"}, {"name": "STARLINK-37092", "line1": "1 68240U 26054J   26156.16670139  .00104537  00000+0  18670-2 0  9993", "line2": "2 68240  53.1588 247.1404 0001460  92.8196 256.8219 15.49241242  5899"}, {"name": "STARLINK-37094", "line1": "1 68241U 26054K   26154.60569539  .00018656  00000+0  64058-3 0  9990", "line2": "2 68241  53.1591 258.0057 0001172  62.5202 297.5918 15.30191277 12147"}, {"name": "STARLINK-36356", "line1": "1 68242U 26054L   26154.52032844  .00017920  00000+0  61557-3 0  9990", "line2": "2 68242  53.1566 258.1908 0001153 110.4789 249.6335 15.30206179 12136"}, {"name": "STARLINK-36345", "line1": "1 68243U 26054M   26154.58999884  .00034917  00000+0  10397-2 0  9993", "line2": "2 68243  53.1585 250.7024 0000985  69.2199 290.8909 15.34400187 12249"}, {"name": "STARLINK-36310", "line1": "1 68244U 26054N   26156.16670139  .00099676  00000+0  17815-2 0  9994", "line2": "2 68244  53.1582 246.9216 0001183  88.5527   5.3321 15.49244162  5858"}, {"name": "STARLINK-36247", "line1": "1 68245U 26054P   26155.87540722  .00064954  00000+0  11629-2 0  9994", "line2": "2 68245  53.1565 246.7000 0001394  47.7382 312.3745 15.49391137 12415"}, {"name": "STARLINK-37043", "line1": "1 68246U 26054Q   26156.00002315  .00036229  00000+0  65740-3 0  9990", "line2": "2 68246  53.1586 247.8892 0001469  75.7114  85.2711 15.49266793  5877"}, {"name": "STARLINK-37044", "line1": "1 68247U 26054R   26155.60467738  .00056740  00000+0  10188-2 0  9995", "line2": "2 68247  53.1577 247.8562 0000502  64.4576 295.6485 15.49366540 12375"}, {"name": "STARLINK-36997", "line1": "1 68248U 26054S   26154.59830106  .00025047  00000+0  85470-3 0  9999", "line2": "2 68248  53.1600 257.9627 0001099  90.0520 270.0607 15.30209537 12143"}, {"name": "STARLINK-37141", "line1": "1 68249U 26054T   26155.61126859  .00054896  00000+0  98597-3 0  9995", "line2": "2 68249  53.1564 247.9192 0001241 110.7114 249.4029 15.49372058 12379"}, {"name": "STARLINK-37087", "line1": "1 68250U 26054U   26156.16670139  .00085756  00000+0  24441-2 0  9998", "line2": "2 68250  53.1589 247.4349 0000444 104.4149  95.9211 15.35366575  5897"}, {"name": "STARLINK-36274", "line1": "1 68251U 26054V   26154.52349076  .00023489  00000+0  80301-3 0  9993", "line2": "2 68251  53.1560 258.1963 0001072  36.0150 324.0923 15.30186720 12136"}, {"name": "STARLINK-37085", "line1": "1 68252U 26054W   26155.64454441  .00055366  00000+0  99603-3 0  9995", "line2": "2 68252  53.1575 247.3854 0002593   9.3458 350.7599 15.49320523 12388"}, {"name": "STARLINK-37086", "line1": "1 68253U 26054X   26154.53631704  .00049764  00000+0  89625-3 0  9990", "line2": "2 68253  53.1572 253.2818 0000794  96.6252 263.4848 15.49336557 12206"}, {"name": "STARLINK-37084", "line1": "1 68254U 26054Y   26155.78317838  .00073777  00000+0  13206-2 0  9990", "line2": "2 68254  53.1575 246.8360 0001701  39.9037 320.2096 15.49339495 12403"}]